COSMOS 2426 (717)       
1 29671U 06062B   20145.26242229  .00000007  00000-0  10000-3 0  9991
2 29671  64.9774 268.7289 0020067 171.9049 250.8196  2.12962355104384
COSMOS 2433 (720)       
1 32275U 07052A   20145.26826899 -.00000048  00000-0  10000-3 0  9992
2 32275  65.9748  29.7266 0002046 284.6900 269.6837  2.13104301 97892
COSMOS 2432 (719)       
1 32276U 07052B   20145.01669358 -.00000048  00000-0  10000-3 0  9991
2 32276  65.9866  29.8246 0011260 335.8331 335.7933  2.13103710 97882
COSMOS 2434 (721)       
1 32393U 07065A   20145.01158203  .00000006  00000-0  00000-0 0  9996
2 32393  64.5831 267.2564 0004263  99.0622 145.9544  2.13103064 96595
COSMOS 2436 (723)       
1 32395U 07065C   20144.60032194  .00000002  00000-0  10000-3 0  9992
2 32395  64.5936 267.3201 0013943   5.2970  60.4654  2.13103052 96525
COSMOS 2456 (730)       
1 36111U 09070A   20144.81756286  .00000083  00000-0  00000-0 0  9993
2 36111  64.2258 146.9356 0006361 303.6863 325.9085  2.13102872 81254
COSMOS 2457 (733)       
1 36112U 09070B   20145.01716159  .00000083  00000-0  00000-0 0  9992
2 36112  64.2097 146.8237 0004776 196.8483 349.2607  2.13101472 81266
COSMOS 2459 (731)       
1 36400U 10007A   20145.15494579 -.00000048  00000-0  10000-3 0  9994
2 36400  65.8750  28.7047 0026752 351.5991 331.1667  2.13105172 79611
COSMOS 2461 (735)       
1 36401U 10007B   20145.09771519 -.00000048  00000-0  10000-3 0  9990
2 36401  65.8688  28.6771 0008270  57.0339 130.1911  2.13102015 79616
COSMOS 2460 (732)       
1 36402U 10007C   20145.22241615 -.00000048  00000-0  10000-3 0  9995
2 36402  65.8602  28.6317 0001602  27.5613 294.4986  2.13101427 79610
COSMOS 2464 (736)       
1 37139U 10041C   20144.87132666  .00000005  00000-0  00000-0 0  9994
2 37139  64.1819 266.7136 0026219  13.1538 348.0537  2.13100717 75684
COSMOS 2474 (742)       
1 37829U 11055A   20145.12092575  .00000084  00000-0  00000-0 0  9996
2 37829  64.5454 147.9409 0010612 250.2408 106.9452  2.13101777 67250
COSMOS 2476 (744)       
1 37867U 11064A   20145.42074663  .00000084  00000-0  00000+0 0  9998
2 37867  64.5258 147.9741 0021596 243.1719  30.2818  2.13101921 66617
COSMOS 2477 (745)       
1 37868U 11064B   20144.97513799  .00000084  00000-0  00000-0 0  9997
2 37868  64.5344 148.0462 0019186 244.6814 225.4263  2.13101780 66569
COSMOS 2475 (743)       
1 37869U 11064C   20144.75096860  .00000085  00000-0  00000-0 0  9990
2 37869  64.5414 148.0548 0023612 263.4162 352.0653  2.13101985 66564
COSMOS 2485 (747)       
1 39155U 13019A   20144.88663337  .00000085  00000-0  00000-0 0  9995
2 39155  64.6931 148.2562 0021927 238.8276  29.4459  2.13101940 55070
COSMOS 2492 (754)       
1 39620U 14012A   20145.11856042 -.00000049  00000-0  10000-3 0  9995
2 39620  65.7495  28.4218 0014315 331.3808 149.9009  2.13103278 48037
COSMOS 2500 (755)       
1 40001U 14032A   20145.44188067 -.00000048  00000-0  00000+0 0  9997
2 40001  65.6875  28.3283 0004675 205.7693  24.1647  2.13102678 46255
COSMOS 2501 (702K)      
1 40315U 14075A   20145.04108603  .00000005  00000-0  00000-0 0  9999
2 40315  63.9019 267.6627 0016105 204.9380 232.7163  2.13098676 42651
COSMOS 2514 (751)       
1 41330U 16008A   20144.86510063 -.00000050  00000-0  00000-0 0  9992
2 41330  65.4901  28.2245 0008171 216.0143 113.8116  2.13103055 33406
COSMOS 2516 (753)       
1 41554U 16032A   20144.88076157  .00000004  00000-0  00000+0 0  9997
2 41554  64.1232 267.7306 0012204 213.3058  19.3159  2.13101706 31015
COSMOS 2522 (752)       
1 42939U 17055A   20144.83942881  .00000004  00000-0  00000-0 0  9993
2 42939  64.3575 267.9056 0006443 241.6104 185.8743  2.13101890 20776
COSMOS 2527 (756)       
1 43508U 18053A   20145.08487635  .00000085  00000-0  00000-0 0  9993
2 43508  64.8580 148.0910 0009294 244.0769  43.4774  2.13102627 15067
COSMOS 2529 (757)       
1 43687U 18086A   20145.04419774  .00000006  00000-0  00000-0 0  9995
2 43687  64.5712 268.0128 0008701 271.1281 269.0699  2.13102103 12085
COSMOS 2534 (758)       
1 44299U 19030A   20144.94817829  .00000005  00000-0  00000-0 0  9995
2 44299  64.6399 267.8290 0011765 290.8819 310.7096  2.13102022  7723
